{
  "type": "FeatureCollection",
  "features": [
    {
      "type": "Feature",
      "properties": {
        "norad_id": 38867,
        "name": "INTELSAT 23 (IS-23)",
        "group": "intelsat",
        "lat": 0.0020683263678713264,
        "lon": -177.25827921169244,
        "alt_km": 35780.28239356776,
        "timestamp": "2025-12-03T10:52:57.117851+00:00",
        "meta_object_name": "INTELSAT 23 (IS-23)",
        "meta_object_id": "2012-057A",
        "meta_epoch": "2025-12-03T03:13:50.964960",
        "meta_mean_motion": 1.0027009,
        "meta_eccentricity": 0.0001779,
        "meta_inclination": 0.0461,
        "meta_ra_of_asc_node": 119.6768,
        "meta_arg_of_pericenter": 95.6813,
        "meta_mean_anomaly": 212.3323,
        "meta_ephemeris_type": 0,
        "meta_classification_type": "U",
        "meta_norad_cat_id": 38867,
        "meta_element_set_no": 999,
        "meta_rev_at_epoch": 4798,
        "meta_bstar": 0,
        "meta_mean_motion_dot": -2.65e-06,
        "meta_mean_motion_ddot": 0,
        "tle_line1": "1 38867U 12057A   25337.13461765 -.00000265  00000+0  00000+0 0  9992",
        "tle_line2": "2 38867   0.0461 119.6768 0001779  95.6813 212.3323  1.00270090 47982"
      },
      "geometry": {
        "type": "Point",
        "coordinates": [
          -177.25827921169244,
          0.0020683263678713264
        ]
      }
    },
    {
      "type": "Feature",
      "properties": {
        "norad_id": 39360,
        "name": "FM-6",
        "group": "intelsat",
        "lat": -0.000992959568682613,
        "lon": 119.56845426887584,
        "alt_km": 35779.583518917374,
        "timestamp": "2025-12-03T10:52:57.117863+00:00",
        "meta_object_name": "FM-6",
        "meta_object_id": "2013-058A",
        "meta_epoch": "2025-12-03T04:16:14.816064",
        "meta_mean_motion": 1.00269774,
        "meta_eccentricity": 0.0002849,
        "meta_inclination": 0.005,
        "meta_ra_of_asc_node": 101.17,
        "meta_arg_of_pericenter": 72.0739,
        "meta_mean_anomaly": 206.9305,
        "meta_ephemeris_type": 0,
        "meta_classification_type": "U",
        "meta_norad_cat_id": 39360,
        "meta_element_set_no": 999,
        "meta_rev_at_epoch": 4410,
        "meta_bstar": 0,
        "meta_mean_motion_dot": 2e-08,
        "meta_mean_motion_ddot": 0,
        "tle_line1": "1 39360U 13058A   25337.17794926  .00000002  00000+0  00000+0 0  9993",
        "tle_line2": "2 39360   0.0050 101.1700 0002849  72.0739 206.9305  1.00269774 44109"
      },
      "geometry": {
        "type": "Point",
        "coordinates": [
          119.56845426887584,
          -0.000992959568682613
        ]
      }
    },
    {
      "type": "Feature",
      "properties": {
        "norad_id": 40271,
        "name": "INTELSAT 30 (IS-30)",
        "group": "intelsat",
        "lat": 0.011977241012849783,
        "lon": 140.71550110543922,
        "alt_km": 35784.03946647957,
        "timestamp": "2025-12-03T10:52:57.117875+00:00",
        "meta_object_name": "INTELSAT 30 (IS-30)",
        "meta_object_id": "2014-062A",
        "meta_epoch": "2025-12-03T03:01:52.114368",
        "meta_mean_motion": 1.00269916,
        "meta_eccentricity": 0.0001184,
        "meta_inclination": 0.014,
        "meta_ra_of_asc_node": 6.9272,
        "meta_arg_of_pericenter": 74.8615,
        "meta_mean_anomaly": 300.8495,
        "meta_ephemeris_type": 0,
        "meta_classification_type": "U",
        "meta_norad_cat_id": 40271,
        "meta_element_set_no": 999,
        "meta_rev_at_epoch": 481,
        "meta_bstar": 0,
        "meta_mean_motion_dot": -1.32e-06,
        "meta_mean_motion_ddot": 0,
        "tle_line1": "1 40271U 14062A   25337.12629762 -.00000132  00000+0  00000+0 0  9997",
        "tle_line2": "2 40271   0.0140   6.9272 0001184  74.8615 300.8495  1.00269916  4818"
      },
      "geometry": {
        "type": "Point",
        "coordinates": [
          140.71550110543922,
          0.011977241012849783
        ]
      }
    },
    {
      "type": "Feature",
      "properties": {
        "norad_id": 40333,
        "name": "DIRECTV 14",
        "group": "intelsat",
        "lat": 0.0037141854376390258,
        "lon": 136.5305461224582,
        "alt_km": 35786.16256051389,
        "timestamp": "2025-12-03T10:52:57.117887+00:00",
        "meta_object_name": "DIRECTV 14",
        "meta_object_id": "2014-078B",
        "meta_epoch": "2025-12-03T04:00:38.641824",
        "meta_mean_motion": 1.00269503,
        "meta_eccentricity": 3.1e-05,
        "meta_inclination": 0.0192,
        "meta_ra_of_asc_node": 324.3141,
        "meta_arg_of_pericenter": 236.1339,
        "meta_mean_anomaly": 192.7545,
        "meta_ephemeris_type": 0,
        "meta_classification_type": "U",
        "meta_norad_cat_id": 40333,
        "meta_element_set_no": 999,
        "meta_rev_at_epoch": 4007,
        "meta_bstar": 0,
        "meta_mean_motion_dot": -1.06e-06,
        "meta_mean_motion_ddot": 0,
        "tle_line1": "1 40333U 14078B   25337.16711391 -.00000106  00000+0  00000+0 0  9998",
        "tle_line2": "2 40333   0.0192 324.3141 0000310 236.1339 192.7545  1.00269503 40076"
      },
      "geometry": {
        "type": "Point",
        "coordinates": [
          136.5305461224582,
          0.0037141854376390258
        ]
      }
    },
    {
      "type": "Feature",
      "properties": {
        "norad_id": 40663,
        "name": "DIRECTV 15",
        "group": "intelsat",
        "lat": 0.02283820312715818,
        "lon": 132.87682145977288,
        "alt_km": 35787.34306924519,
        "timestamp": "2025-12-03T10:52:57.117898+00:00",
        "meta_object_name": "DIRECTV 15",
        "meta_object_id": "2015-026A",
        "meta_epoch": "2025-12-02T15:00:23.376384",
        "meta_mean_motion": 1.00270418,
        "meta_eccentricity": 2.99e-05,
        "meta_inclination": 0.0433,
        "meta_ra_of_asc_node": 100.4968,
        "meta_arg_of_pericenter": 166.0499,
        "meta_mean_anomaly": 287.4051,
        "meta_ephemeris_type": 0,
        "meta_classification_type": "U",
        "meta_norad_cat_id": 40663,
        "meta_element_set_no": 999,
        "meta_rev_at_epoch": 3849,
        "meta_bstar": 0,
        "meta_mean_motion_dot": -8.2e-07,
        "meta_mean_motion_ddot": 0,
        "tle_line1": "1 40663U 15026A   25336.62527056 -.00000082  00000+0  00000+0 0  9994",
        "tle_line2": "2 40663   0.0433 100.4968 0000299 166.0499 287.4051  1.00270418 38498"
      },
      "geometry": {
        "type": "Point",
        "coordinates": [
          132.87682145977288,
          0.02283820312715818
        ]
      }
    },
    {
      "type": "Feature",
      "properties": {
        "norad_id": 40664,
        "name": "SKY MEXICO-1",
        "group": "intelsat",
        "lat": -0.008448721969236433,
        "lon": 156.96639686529238,
        "alt_km": 35790.214634664095,
        "timestamp": "2025-12-03T10:52:57.117910+00:00",
        "meta_object_name": "SKY MEXICO-1",
        "meta_object_id": "2015-026B",
        "meta_epoch": "2025-12-03T03:06:29.169792",
        "meta_mean_motion": 1.00270599,
        "meta_eccentricity": 0.0002749,
        "meta_inclination": 0.0169,
        "meta_ra_of_asc_node": 330.8683,
        "meta_arg_of_pericenter": 295.1726,
        "meta_mean_anomaly": 134.0467,
        "meta_ephemeris_type": 0,
        "meta_classification_type": "U",
        "meta_norad_cat_id": 40664,
        "meta_element_set_no": 999,
        "meta_rev_at_epoch": 3848,
        "meta_bstar": 0,
        "meta_mean_motion_dot": -2.15e-06,
        "meta_mean_motion_ddot": 0,
        "tle_line1": "1 40664U 15026B   25337.12950428 -.00000215  00000+0  00000+0 0  9992",
        "tle_line2": "2 40664   0.0169 330.8683 0002749 295.1726 134.0467  1.00270599 38484"
      },
      "geometry": {
        "type": "Point",
        "coordinates": [
          156.96639686529238,
          -0.008448721969236433
        ]
      }
    },
    {
      "type": "Feature",
      "properties": {
        "norad_id": 40874,
        "name": "INTELSAT 34 (IS-34)",
        "group": "intelsat",
        "lat": -0.030316900371695925,
        "lon": -179.74298891540002,
        "alt_km": 35784.218221193725,
        "timestamp": "2025-12-03T10:52:57.117921+00:00",
        "meta_object_name": "INTELSAT 34 (IS-34)",
        "meta_object_id": "2015-039A",
        "meta_epoch": "2025-12-03T03:13:06.036960",
        "meta_mean_motion": 1.0027034,
        "meta_eccentricity": 5.63e-05,
        "meta_inclination": 0.0136,
        "meta_ra_of_asc_node": 301.1057,
        "meta_arg_of_pericenter": 227.0819,
        "meta_mean_anomaly": 256.8178,
        "meta_ephemeris_type": 0,
        "meta_classification_type": "U",
        "meta_norad_cat_id": 40874,
        "meta_element_set_no": 999,
        "meta_rev_at_epoch": 3765,
        "meta_bstar": 0,
        "meta_mean_motion_dot": -2.66e-06,
        "meta_mean_motion_ddot": 0,
        "tle_line1": "1 40874U 15039A   25337.13409765 -.00000266  00000+0  00000+0 0  9999",
        "tle_line2": "2 40874   0.0136 301.1057 0000563 227.0819 256.8178  1.00270340 37650"
      },
      "geometry": {
        "type": "Point",
        "coordinates": [
          -179.74298891540002,
          -0.030316900371695925
        ]
      }
    }
  ]
}